AEROCUBE 12A            
1 43556U 18046C   20353.35601916  .00002721  00000-0  10256-3 0  9995
2 43556  51.6408 301.5071 0007372 230.8220 129.2106 15.30644946135532
AEROCUBE 12B            
1 43557U 18046D   20353.84777650  .00002086  00000-0  82459-4 0  9998
2 43557  51.6422 300.2698 0007463 232.8892 127.1407 15.30239981135549
SIRIUSSAT-1             
1 43595U 98067PG  20344.55055662  .07916525  12514-4  56251-3 0  9997
2 43595  51.6588  97.6693 0009437  42.2825  52.9592 16.39998780132780
SIRIUSSAT-2             
1 43596U 98067PH  20344.36554324  .08904132  12494-4  57179-3 0  9995
2 43596  51.6062  99.6513 0006261 312.7483  99.6145 16.40921535132742
SURFSAT                 
1 43614U 18070B   20353.79167122  .00004230  00000-0  10432-3 0  9994
2 43614  93.0269 230.9741 0014389 356.1495   3.9646 15.40484531126847
CP7 (DAVE)              
1 43615U 18070C   20353.77889322  .00004018  00000-0  99825-4 0  9994
2 43615  93.0273 230.9461 0014541 355.7542   4.3587 15.40265192126838
ELFIN-B                 
1 43616U 18070D   20353.76000543  .00006492  00000-0  15096-3 0  9999
2 43616  93.0230 230.9604 0014749 356.0990   4.0148 15.42226821126908
ELFIN-A                 
1 43617U 18070E   20353.76478522  .00006222  00000-0  14318-3 0  9993
2 43617  93.0285 231.6368 0013963 353.3775   6.7294 15.42558087126916
CUBEBEL-1 (BSUSAT-1)    
1 43666U 18083E   20354.21072037  .00001551  00000-0  77803-4 0  9992
2 43666  97.4732  18.7363 0016497  78.1854 346.4351 15.18720500118653
CICERO 10               
1 43690U 18088A   20353.97736774  .00001816  00000-0  80731-4 0  9999
2 43690  85.0369 316.7022 0014824   2.9553 357.1773 15.20661908116772
IRVINE01                
1 43693U 18088D   20353.62323292  .00004655  00000-0  18985-3 0  9996
2 43693  85.0342 315.0125 0016337 341.8836  18.1822 15.24029884116888
PROXIMA I               
1 43694U 18088E   20353.69221250  .00001854  00000-0  78245-4 0  9999
2 43694  85.0310 314.9565 0017809 332.7442  27.2864 15.22407273116873
PROXIMA II              
1 43696U 18088G   20353.69031771  .00001847  00000-0  77928-4 0  9997
2 43696  85.0312 314.9637 0017853 332.6672  27.3629 15.22407091116867
FACSAT-1                
1 43721U 18096C   20354.22153426  .00002563  00000-0  96366-4 0  9990
2 43721  97.4056  66.6866 0017068 184.6405 251.5428 15.27953396114595
CENTAURI-2              
1 43722U 18096D   20353.76632456  .00003467  00000-0  12644-3 0  9994
2 43722  97.4062  66.7163 0017032 185.5831 174.5221 15.28714727114542
INNOSAT-2               
1 43738U 18096V   20354.19949274  .00004705  00000-0  15532-3 0  9993
2 43738  97.4105  69.9432 0022361 189.6137 254.7698 15.31666552114798
SIRION PATHFINDER-2     
1 43759U 18099B   20354.13480702  .00000231  00000-0  26100-4 0  9993
2 43759  97.6870  62.4592 0012791 286.5677  73.4165 14.95381042111530
CORVUS BC4              
1 43767U 18099K   20353.87700981  .00000317  00000-0  34293-4 0  9993
2 43767  97.6848  61.4112 0010213 293.5021  66.5115 14.94819772111453
MOVE-II                 
1 43780U 18099Y   20353.79192556  .00000580  00000-0  57281-4 0  9996
2 43780  97.6886  62.1296 0012196 301.1233  58.8791 14.95635070111467
SPACEBEE-7              
1 43816U 18099BL  20353.76398499  .00000564  00000-0  55493-4 0  9992
2 43816  97.6906  62.6031 0011852 284.4136  75.5769 14.95892397111047
SPACEBEE-5              
1 43817U 18099BM  20353.76283137  .00001689  00000-0  15255-3 0  9995
2 43817  97.6978  63.3899 0011462 282.9669  77.0272 14.96773967111079
SPACEBEE-6              
1 43818U 18099BN  20353.76699360  .00000688  00000-0  66126-4 0  9997
2 43818  97.6927  62.8490 0011788 283.9166  76.0744 14.96162845111204
SHIELDS 1               
1 43850U 18104B   20353.62146960  .00000757  00000-0  31595-4 0  9997
2 43850  85.0302  53.5759 0017043 110.5988 249.7084 15.21611558111474
STF-1                   
1 43852U 18104D   20353.56808049  .00001666  00000-0  71403-4 0  9997
2 43852  85.0340  54.2523 0016342 123.7126 236.5677 15.21800289111446
ZACUBE-2                
1 43907U 18111AH  20354.29134933  .00000805  00000-0  35067-4 0  9991
2 43907  97.2493 248.2996 0020292 206.5592 301.8641 15.24860946110171
LUME 1                  
1 43908U 18111AJ  20353.99152609  .00001735  00000-0  70788-4 0  9990
2 43908  97.2500 248.3328 0019920 206.4047 153.6178 15.25567129110155
AOBA VELOX-IV           
1 43940U 19003J   20353.78261301  .00002831  00000-0  11260-3 0  9991
2 43940  97.2048  38.5658 0021626 292.1988  67.6956 15.25877180106744
CATSAT-2                
1 44029U 98067PV  20353.74576580  .00056239  00000-0  34904-3 0  9992
2 44029  51.6399  96.4361 0002219  28.9972 331.1151 15.76446774107468
DELPHINI                
1 44030U 98067PW  20354.01044912  .00079107  00000-0  41118-3 0  9998
2 44030  51.6312  91.2067 0003433   8.7778 351.3283 15.80263098107528
UNITE                   
1 44031U 98067PX  20353.72692607  .00022193  00000-0  21065-3 0  9998
2 44031  51.6372 110.5552 0002312  35.4374 324.6775 15.66811865107246
CATSAT-1                
1 44033U 98067PZ  20353.55539627  .00054607  00000-0  33950-3 0  9994
2 44033  51.6399  97.4247 0002317  28.2795 331.8330 15.76419469107346
RAAVANA-1               
1 44329U 98067QE  20353.67923801  .00024271  00000-0  25875-3 0  9997
2 44329  51.6372 127.5813 0005087 326.2997  33.7674 15.63812217 85765
UGUISU                  
1 44330U 98067QF  20353.64110991  .00024280  00000-0  26056-3 0  9996
2 44330  51.6353 128.0285 0005103 325.0401  35.0258 15.63642680 85736
NEPALISAT-1             
1 44331U 98067QG  20353.67031446  .00025182  00000-0  26827-3 0  9995
2 44331  51.6348 127.4751 0005061 328.8057  31.2637 15.63807249 85758
SPOOQY-1                
1 44332U 98067QH  20353.81925838  .00024469  00000-0  26348-3 0  9994
2 44332  51.6358 126.9852 0004267 331.4788  28.5973 15.63554561 85730
SPACEBEE-9              
1 44370U 19037F   20353.79932738  .00019381  00000-0  36681-3 0  9998
2 44370  45.0031 162.4251 0013743 214.0400 145.9611 15.48040115 83112
SPACEBEE-8              
1 44371U 19037G   20353.78267460  .00057244  00000-0  72905-3 0  9990
2 44371  45.0032 147.0929 0013031 247.1851 112.7668 15.58476542 83293
IOD-1 GEMS              
1 44385U 98067QK  20353.63869168  .00058014  00000-0  43791-3 0  9999
2 44385  51.6360 120.5865 0003853 296.0675  63.9926 15.71882174 83323
MOVE-IIB                
1 44398U 19038N   20353.92747800  .00001831  00000-0  10705-3 0  9998
2 44398  97.5591 313.1094 0023768 208.8831 151.1082 15.12933655 80469
SONATE                  
1 44400U 19038Q   20354.15442407  .00000947  00000-0  58335-4 0  9992
2 44400  97.5652 313.3175 0024002 207.4055 152.5915 15.12224477 80485
LUCKY-7                 
1 44406U 19038W   20353.80450514  .00000918  00000-0  56175-4 0  9995
2 44406  97.5656 313.1408 0023567 207.6735 152.3243 15.12545559 80438
BEESAT 9                
1 44412U 19038AC  20353.85471708  .00001353  00000-0  80628-4 0  9999
2 44412  97.5645 313.1799 0021414 212.9502 147.0396 15.12734880 80141
JAISAT-1                
1 44419U 19038F   20353.81607964  .00001324  00000-0  77964-4 0  9994
2 44419  97.5646 313.5467 0020292 211.6198 148.3815 15.13218222 80479
SWIATOWID               
1 44426U 98067QL  20354.16836113  .00081302  00000-0  52572-3 0  9991
2 44426  51.6378 114.9323 0004213 299.7774 120.8275 15.75354189 83453
KRAKSAT                 
1 44427U 98067QM  20354.15341294  .00015600  00000-0  19462-3 0  9991
2 44427  51.6406 131.9510 0003052 278.9413 252.3454 15.60070494 83269
VCC A                   
1 44428U 98067QN  20353.63257918  .00022139  00000-0  24574-3 0  9998
2 44428  51.6380 130.3249 0002651 295.1475  64.9244 15.62845303 83249
ENTRYSAT                
1 44429U 98067QP  20353.61756700  .00029807  00000-0  29784-3 0  9997
2 44429  51.6353 127.1591 0002723 289.1176  70.9524 15.65341365 83289
VCC C                   
1 44430U 98067QQ  20353.62091797  .00041387  00000-0  35586-3 0  9992
2 44430  51.6352 123.4302 0002838 297.0067  63.0640 15.68899665 82165
VCC B                   
1 44431U 98067QR  20353.62318247  .00022912  00000-0  25263-3 0  9999
2 44431  51.6357 130.2189 0002785 294.4553  65.6150 15.62993567 83189
DUCHIFAT-3              
1 44854U 19089C   20354.25656554  .00000710  00000-0  63463-4 0  9998
2 44854  36.9656  86.0790 0006847 116.6730 243.4712 14.99257116 56044
EYESAT-NANO             
1 44877U 19092E   20353.76645394  .00001579  00000-0  82315-4 0  9993
2 44877  97.4545 174.0979 0014919  97.5788 262.7141 15.17336678 55539
ORBITAL FACTORY 2 (OF-2)
1 45113U 19071C   20353.81579401  .00002520  00000-0  85698-4 0  9999
2 45113  51.6407 192.4261 0012298   4.8948 355.2153 15.34390270 49426
M2 PATHFINDER           
1 45727U 20037E   20354.06532660  .00000574  00000-0  63091-4 0  9998
2 45727  97.7040 169.9087 0013864  51.1807 309.0631 14.91285564 25530
NETSAT-4                
1 46504U 20068U   20353.76343637  .00001000  00000-0  81013-4 0  9995
2 46504  97.6742 286.3160 0010406 355.9086   4.2055 15.01926175 12117
NETSAT-3                
1 46505U 20068V   20353.76556830  .00001196  00000-0  96105-4 0  9991
2 46505  97.6733 286.3082 0009996 355.7189   4.3949 15.01885841 12123
NETSAT-1                
1 46506U 20068W   20353.76788292  .00001309  00000-0  10483-3 0  9991
2 46506  97.6716 286.3010 0010076 356.1337   3.9806 15.01842972 12122
NETSAT-2                
1 46507U 20068X   20353.90198654  .00001303  00000-0  10443-3 0  9995
2 46507  97.6721 286.4350 0009965 356.0309   4.0835 15.01822662 12094
SPOC                    
1 46921U 98067RR  20353.72746979  .00008485  00000-0  15106-3 0  9997
2 46921  51.6417 154.9170 0002681 126.3623 233.7614 15.51012370  6787
BOBCAT-1                
1 46922U 98067RS  20353.91749453  .00011855  00000-0  20578-3 0  9993
2 46922  51.6418 153.9370 0002358 134.2821 225.8363 15.51299399  6768
